1 41175U 15079B   18271.13690910  .00000017  00000-0  00000+0 0  9995
2 41175  54.9235 178.7918 0003906 309.9523  50.0722  1.70472989 17302
